{
  "norad_id": 65765,
  "name": "KUIPER-00139",
  "history": [
    {
      "epoch": "2026-03-28T20:55:15.595392",
      "apogee_km": 566.1993989872617,
      "perigee_km": 555.1690324534802,
      "latitude_deg": 22.629631456729733,
      "longitude_deg": 120.18399487994611,
      "semi_major_axis_km": 6938.821215720371,
      "eccentricity": 0.00079483,
      "inclination_deg": 51.8858,
      "raan_deg": 305.9715,
      "arg_perigee_deg": 19.7154,
      "mean_anomaly_deg": 340.4124,
      "mean_motion_rev_day": 15.02014812
    }
  ]
}