{"fetched_at":"2026-03-29T16:36:15Z","count":15609,"tles":[{"name":"KUIPER-00139","line1":"1 65765U 25217D   26087.87170828 -.00003982  00000+0 -27974-3 0  9995","line2":"2 65765  51.8858 305.9715 0007948  19.7154 340.4124 15.02014812 27899","category":"Other"}]}